NORAD_CAT_ID,OBJECT_NAME,OBJECT_TYPE,EPOCH,MEAN_MOTION,ECCENTRICITY,INCLINATION,RA_OF_ASC_NODE,ARG_OF_PERICENTER,MEAN_ANOMALY,BSTAR,MEAN_MOTION_DOT,MEAN_MOTION_DDOT,TLE_LINE0,TLE_LINE1,TLE_LINE2,SEMIMAJOR_AXIS,PERIOD,APOGEE,PERIGEE,DECAYED
53994.0,STARLINK-5125,PAYLOAD,2023-05-08 10:13:27,15.08835321,0.0001157,53.2159,185.9617,95.7459,264.3665,-0.00010129,-1.899e-05,0.0,0 STARLINK-5125,1 53994U 22125AG  23128.42600852 -.00001899  00000-0 -10129-3 0  9990,2 53994  53.2159 185.9617 0001157  95.7459 264.3665 15.08835321 33090,6917.895,95.438,540.56,538.959,0.0
53994.0,STARLINK-5125,PAYLOAD,2023-05-08 13:24:13,15.0883965,0.0001284,53.2149,185.37,82.4376,277.6762,-8.2753e-06,-4.2e-06,0.0,0 STARLINK-5125,1 53994U 22125AG  23128.55848939 -.00000420  00000-0 -82753-5 0  9997,2 53994  53.2149 185.3700 0001284  82.4376 277.6762 15.08839650 33047,6917.881,95.438,540.635,538.858,0.0
53994.0,STARLINK-5125,PAYLOAD,2023-05-09 10:04:14,15.08844257,0.0001269,53.2154,181.5035,89.73,270.3838,7.0016e-05,8.27e-06,0.0,0 STARLINK-5125,1 53994U 22125AG  23129.41960707  .00000827  00000-0  70016-4 0  9998,2 53994  53.2154 181.5035 0001269  89.7300 270.3838 15.08844257 33247,6917.867,95.437,540.61,538.854,0.0
53994.0,STARLINK-5125,PAYLOAD,2023-05-09 13:15:00,15.08847697,0.0001122,53.2158,180.9095,85.9496,274.1624,0.00012808,1.752e-05,0.0,0 STARLINK-5125,1 53994U 22125AG  23129.55208519  .00001752  00000-0  12808-3 0  9991,2 53994  53.2158 180.9095 0001122  85.9496 274.1624 15.08847697 33192,6917.857,95.437,540.498,538.946,0.0
53994.0,STARLINK-5125,PAYLOAD,2023-05-10 13:05:47,15.08841407,0.0001057,53.2144,176.4482,80.109,280.0022,0.0001692,2.406e-05,0.0,0 STARLINK-5125,1 53994U 22125AG  23130.54569142  .00002406  00000-0  16920-3 0  9990,2 53994  53.2144 176.4482 0001057  80.1090 280.0022 15.08841407 33349,6917.876,95.437,540.472,539.01,0.0
53994.0,STARLINK-5125,PAYLOAD,2023-05-10 19:27:20,15.08839442,0.0001107,53.2148,175.2586,83.0543,277.0575,0.00011426,1.531e-05,0.0,0 STARLINK-5125,1 53994U 22125AG  23130.81065280  .00001531  00000-0  11426-3 0  9998,2 53994  53.2148 175.2586 0001107  83.0543 277.0575 15.08839442 33385,6917.882,95.438,540.513,538.981,0.0
53994.0,STARLINK-5125,PAYLOAD,2023-05-11 09:45:48,15.08846131,0.0001069,53.2146,172.5815,85.8845,274.2269,0.00011678,1.572e-05,0.0,0 STARLINK-5125,1 53994U 22125AG  23131.40680916  .00001572  00000-0  11678-3 0  9997,2 53994  53.2146 172.5815 0001069  85.8845 274.2269 15.08846131 33540,6917.862,95.437,540.466,538.987,0.0
53994.0,STARLINK-5125,PAYLOAD,2023-05-11 19:18:07,15.08844856,0.0001684,53.215,170.7955,55.1599,304.9552,6.4416e-05,7.37e-06,0.0,0 STARLINK-5125,1 53994U 22125AG  23131.80424960  .00000737  00000-0  64416-4 0  9997,2 53994  53.2150 170.7955 0001684  55.1599 304.9552 15.08844856 33536,6917.866,95.437,540.896,538.566,0.0
53994.0,STARLINK-5125,PAYLOAD,2023-05-11 22:28:53,15.08839275,0.0001255,53.2152,170.2073,95.6505,264.463,0.0001192,1.61e-05,0.0,0 STARLINK-5125,1 53994U 22125AG  23131.93673246  .00001610  00000-0  11920-3 0  9996,2 53994  53.2152 170.2073 0001255  95.6505 264.4630 15.08839275 33620,6917.883,95.438,540.616,538.879,0.0
53994.0,STARLINK-5125,PAYLOAD,2023-05-12 06:25:49,15.08831844,0.0001179,53.2151,168.7187,94.7211,265.3916,-6.4262e-05,-1.31e-05,0.0,0 STARLINK-5125,1 53994U 22125AG  23132.26793724 -.00001310  00000-0 -64262-4 0  9994,2 53994  53.2151 168.7187 0001179  94.7211 265.3916 15.08831844 33672,6917.905,95.438,540.586,538.955,0.0
53994.0,STARLINK-5125,PAYLOAD,2023-05-12 19:08:55,15.08834754,0.000115,53.216,166.3406,90.1592,269.9532,3.7765e-05,3.13e-06,0.0,0 STARLINK-5125,1 53994U 22125AG  23132.79786032  .00000313  00000-0  37765-4 0  9994,2 53994  53.2160 166.3406 0001150  90.1592 269.9532 15.08834754 33689,6917.896,95.438,540.557,538.966,0.0
53994.0,STARLINK-5125,PAYLOAD,2023-05-12 22:19:41,15.08838443,9.63e-05,53.2155,165.7448,97.0422,263.0679,0.00010736,1.421e-05,0.0,0 STARLINK-5125,1 53994U 22125AG  23132.93033693  .00001421  00000-0  10736-3 0  9997,2 53994  53.2155 165.7448 0000963  97.0422 263.0679 15.08838443 33777,6917.885,95.438,540.416,539.084,0.0
53994.0,STARLINK-5125,PAYLOAD,2023-05-13 11:02:46,15.08843336,0.00011,53.2158,163.3662,88.5806,271.5312,6.6651e-05,7.73e-06,0.0,0 STARLINK-5125,1 53994U 22125AG  23133.46025481  .00000773  00000-0  66651-4 0  9999,2 53994  53.2158 163.3662 0001100  88.5806 271.5312 15.08843336 33783,6917.87,95.437,540.496,538.974,0.0
53994.0,STARLINK-5125,PAYLOAD,2023-05-13 18:59:42,15.08839248,0.0001121,53.2156,161.8793,82.5051,277.6069,3.5808e-05,2.82e-06,0.0,0 STARLINK-5125,1 53994U 22125AG  23133.79145841  .00000282  00000-0  35808-4 0  9993,2 53994  53.2156 161.8793 0001121  82.5051 277.6069 15.08839248 33837,6917.883,95.438,540.523,538.972,0.0
53994.0,STARLINK-5125,PAYLOAD,2023-05-14 10:53:33,15.08837105,0.0001089,53.2155,158.9042,80.6049,279.5066,0.00011695,1.574e-05,0.0,0 STARLINK-5125,1 53994U 22125AG  23134.45386065  .00001574  00000-0  11695-3 0  9994,2 53994  53.2155 158.9042 0001089  80.6049 279.5066 15.08837105 34007,6917.889,95.438,540.508,539.001,0.0
53994.0,STARLINK-5125,PAYLOAD,2023-05-14 18:50:29,15.08838945,0.00011,53.2155,157.4175,80.2782,279.8335,0.00011086,1.477e-05,0.0,0 STARLINK-5125,1 53994U 22125AG  23134.78506011  .00001477  00000-0  11086-3 0  9991,2 53994  53.2155 157.4175 0001100  80.2782 279.8335 15.08838945 33983,6917.884,95.438,540.51,538.988,0.0
53994.0,STARLINK-5125,PAYLOAD,2023-05-15 07:33:34,15.08844133,0.0001117,53.2154,155.0386,80.3978,279.7141,9.0993e-05,1.161e-05,0.0,0 STARLINK-5125,1 53994U 22125AG  23135.31497703  .00001161  00000-0  90993-4 0  9993,2 53994  53.2154 155.0386 0001117  80.3978 279.7141 15.08844133 34066,6917.868,95.437,540.505,538.96,0.0
53994.0,STARLINK-5125,PAYLOAD,2023-05-15 18:41:16,15.08842458,0.0001098,53.2155,152.957,79.9251,280.1865,6.9214e-05,8.14e-06,0.0,0 STARLINK-5125,1 53994U 22125AG  23135.77865768  .00000814  00000-0  69214-4 0  9999,2 53994  53.2155 152.9570 0001098  79.9251 280.1865 15.08842458 34207,6917.873,95.437,540.497,538.978,0.0
53994.0,STARLINK-5125,PAYLOAD,2023-05-16 07:24:21,15.08840698,0.0001107,53.2154,150.5777,82.1115,278.0002,6.6165e-05,7.65e-06,0.0,0 STARLINK-5125,1 53994U 22125AG  23136.30857929  .00000765  00000-0  66165-4 0  9996,2 53994  53.2154 150.5777 0001107  82.1115 278.0002 15.08840698 34219,6917.878,95.438,540.509,538.977,0.0
53994.0,STARLINK-5125,PAYLOAD,2023-05-16 18:32:03,15.08842502,0.0001115,53.2155,148.4962,81.035,279.0768,6.8239e-05,7.98e-06,0.0,0 STARLINK-5125,1 53994U 22125AG  23136.77225718  .00000798  00000-0  68239-4 0  9992,2 53994  53.2155 148.4962 0001115  81.0350 279.0768 15.08842502 34283,6917.873,95.437,540.509,538.966,0.0
53994.0,STARLINK-5125,PAYLOAD,2023-05-17 07:15:07,15.08845358,0.0001105,53.2154,146.1167,83.3565,276.7553,6.4486e-05,7.39e-06,0.0,0 STARLINK-5125,1 53994U 22125AG  23137.30217371  .00000739  00000-0  64486-4 0  9993,2 53994  53.2154 146.1167 0001105  83.3565 276.7553 15.08845358 34431,6917.864,95.437,540.493,538.965,0.0
53994.0,STARLINK-5125,PAYLOAD,2023-05-18 10:16:41,15.08834907,0.0001069,53.2155,141.0614,82.4395,277.6719,1.2924e-05,-8.2e-07,0.0,0 STARLINK-5125,1 53994U 22125AG  23138.42826171 -.00000082  00000-0  12924-4 0  9993,2 53994  53.2155 141.0614 0001069  82.4395 277.6719 15.08834907 34604,6917.896,95.438,540.5,539.021,0.0
53994.0,STARLINK-5125,PAYLOAD,2023-05-18 16:38:14,15.08835919,0.0001048,53.2154,139.8719,81.0507,279.0603,2.7198e-06,-2.44e-06,0.0,0 STARLINK-5125,1 53994U 22125AG  23138.69322177 -.00000244  00000-0  27198-5 0  9999,2 53994  53.2154 139.8719 0001048  81.0507 279.0603 15.08835919 34579,6917.893,95.438,540.483,539.033,0.0
53994.0,STARLINK-5125,PAYLOAD,2023-05-19 16:29:01,15.08836034,0.0001038,53.2151,135.412,77.4488,282.6621,3.2029e-05,2.22e-06,0.0,0 STARLINK-5125,1 53994U 22125AG  23139.68682211  .00000222  00000-0  32029-4 0  9990,2 53994  53.2151 135.4120 0001038  77.4488 282.6621 15.08836034 34793,6917.893,95.438,540.476,539.039,0.0
53994.0,STARLINK-5125,PAYLOAD,2023-05-20 16:19:48,15.08839837,0.0001159,53.216,130.9516,84.6018,275.5106,9.738e-05,1.262e-05,0.0,0 STARLINK-5125,1 53994U 22125AG  23140.68042203  .00001262  00000-0  97380-4 0  9999,2 53994  53.2160 130.9516 0001159  84.6018 275.5106 15.08839837 34877,6917.881,95.438,540.548,538.944,0.0
53994.0,STARLINK-5125,PAYLOAD,2023-05-20 22:41:20,15.08843466,0.0001126,53.2157,129.7618,83.2241,276.888,0.00011359,1.521e-05,0.0,0 STARLINK-5125,1 53994U 22125AG  23140.94537921  .00001521  00000-0  11359-3 0  9993,2 53994  53.2157 129.7618 0001126  83.2241 276.8880 15.08843466 34987,6917.87,95.437,540.514,538.956,0.0
53994.0,STARLINK-5125,PAYLOAD,2023-05-21 08:13:39,15.08850163,0.0001171,53.216,127.9778,85.2438,274.8688,0.00013788,1.908e-05,0.0,0 STARLINK-5125,1 53994U 22125AG  23141.34281423  .00001908  00000-0  13788-3 0  9998,2 53994  53.2160 127.9778 0001171  85.2438 274.8688 15.08850163 34973,6917.849,95.437,540.524,538.904,0.0
53994.0,STARLINK-5125,PAYLOAD,2023-05-22 04:53:40,15.08837594,0.000146,53.2167,124.1128,93.3866,266.7293,7.1639e-05,8.52e-06,0.0,0 STARLINK-5125,1 53994U 22125AG  23142.20394674  .00000852  00000-0  71639-4 0  9994,2 53994  53.2167 124.1128 0001460  93.3866 266.7293 15.08837594 35172,6917.888,95.438,540.763,538.743,0.0
53994.0,STARLINK-5125,PAYLOAD,2023-05-22 08:04:27,15.08834281,0.0001478,53.2172,123.5149,108.4029,251.7124,5.7763e-05,6.31e-06,0.0,0 STARLINK-5125,1 53994U 22125AG  23142.33642817  .00000631  00000-0  57763-4 0  9990,2 53994  53.2172 123.5149 0001478 108.4029 251.7124 15.08834281 35124,6917.898,95.438,540.785,538.74,0.0
53994.0,STARLINK-5125,PAYLOAD,2023-05-22 16:01:22,15.08839831,0.0001188,53.2161,122.029,94.0445,266.0683,4.0067e-05,3.5e-06,0.0,0 STARLINK-5125,1 53994U 22125AG  23142.66762603  .00000350  00000-0  40067-4 0  9999,2 53994  53.2161 122.0290 0001188  94.0445 266.0683 15.08839831 35173,6917.881,95.438,540.568,538.924,0.0
